NORAD_CAT_ID,OBJECT_NAME,OBJECT_TYPE,EPOCH,MEAN_MOTION,ECCENTRICITY,INCLINATION,RA_OF_ASC_NODE,ARG_OF_PERICENTER,MEAN_ANOMALY,BSTAR,MEAN_MOTION_DOT,MEAN_MOTION_DDOT,TLE_LINE0,TLE_LINE1,TLE_LINE2,SEMIMAJOR_AXIS,PERIOD,APOGEE,PERIGEE,DECAYED
51147.0,STARLINK-3352,PAYLOAD,2022-08-14 06:48:52,15.08835672,0.0001626,53.2184,40.3457,67.2031,292.9132,2.2726e-05,7.4e-07,0.0,0 STARLINK-3352,1 51147U 22005AV  22226.28394662  .00000074  00000-0  22726-4 0  9995,2 51147  53.2184  40.3457 0001626  67.2031 292.9132 15.08835672 32941,6917.894,95.438,540.883,538.634,0.0
51147.0,STARLINK-3352,PAYLOAD,2022-08-14 17:56:34,15.088421300000002,0.000158,53.2184,38.2642,72.3465,287.7699,3.4869e-05,2.67e-06,0.0,0 STARLINK-3352,1 51147U 22005AV  22226.74762267  .00000267  00000-0  34869-4 0  9991,2 51147  53.2184  38.2642 0001580  72.3465 287.7699 15.08842130 33016,6917.874,95.437,540.832,538.646,0.0
51147.0,STARLINK-3352,PAYLOAD,2022-08-15 06:39:39,15.08844668,0.0001608,53.2186,35.8861,61.2563,298.8591,0.00014329,1.993e-05,0.0,0 STARLINK-3352,1 51147U 22005AV  22227.27754152  .00001993  00000-0  14329-3 0  9999,2 51147  53.2186  35.8861 0001608  61.2563 298.8591 15.08844668 31976,6917.866,95.437,540.844,538.619,0.0
51147.0,STARLINK-3352,PAYLOAD,2022-08-15 17:47:22,15.08835186,0.0001559,53.2179,33.8039,63.1442,296.9709,8.0781e-05,9.98e-06,0.0,0 STARLINK-3352,1 51147U 22005AV  22227.74123045  .00000998  00000-0  80781-4 0  9992,2 51147  53.2179  33.8039 0001559  63.1442 296.9709 15.08835186 33163,6917.895,95.438,540.839,538.682,0.0
51147.0,STARLINK-3352,PAYLOAD,2022-08-16 12:51:59,15.08845999,0.0001595,53.218,30.2357,62.1595,297.9559,0.00019798,2.865e-05,0.0,0 STARLINK-3352,1 51147U 22005AV  22228.53610682  .00002865  00000-0  19798-3 0  9992,2 51147  53.2180  30.2357 0001595  62.1595 297.9559 15.08845999 32163,6917.861999999999,95.437,540.83,538.624,0.0
51147.0,STARLINK-3352,PAYLOAD,2022-08-16 20:48:55,15.08847633,0.0001585999999999,53.218,28.7488,63.253,296.8625,0.00016843,2.394e-05,0.0,0 STARLINK-3352,1 51147U 22005AV  22228.86730492  .00002394  00000-0  16843-3 0  9995,2 51147  53.2180  28.7488 0001586  63.2530 296.8625 15.08847633 33330,6917.857,95.437,540.819,538.625,0.0
51147.0,STARLINK-3352,PAYLOAD,2022-08-17 07:56:37,15.08834354,0.0001610999999999,53.2181,26.6672,68.0131,292.1033,8.3756e-05,1.045e-05,0.0,0 STARLINK-3352,1 51147U 22005AV  22229.33099390  .00001045  00000-0  83756-4 0  9993,2 51147  53.2181  26.6672 0001611  68.0131 292.1033 15.08834354 33408,6917.898,95.438,540.877,538.648,0.0
51147.0,STARLINK-3352,PAYLOAD,2022-08-17 12:42:47,15.08837894,0.0001595999999999,53.2183,25.7756,65.0264,295.0894,0.00011008,1.464e-05,0.0,0 STARLINK-3352,1 51147U 22005AV  22229.52971183  .00001464  00000-0  11008-3 0  9998,2 51147  53.2183  25.7756 0001596  65.0264 295.0894 15.08837894 32317,6917.887,95.438,540.856,538.648,0.0
51147.0,STARLINK-3352,PAYLOAD,2022-08-18 10:58:10,15.08839416,0.0001636,53.2166,21.6087,80.7039,279.4139,7.1689e-06,-1.74e-06,0.0,0 STARLINK-3352,1 51147U 22005AV  22230.45706728 -.00000174  00000-0  71689-5 0  9994,2 51147  53.2166  21.6087 0001636  80.7039 279.4139 15.08839416 32454,6917.882,95.438,540.879,538.615,0.0
51147.0,STARLINK-3352,PAYLOAD,2022-08-18 17:19:42,15.08843631,0.0001544,53.2183,20.4228,68.2722,291.8434,3.5712e-05,2.8e-06,0.0,0 STARLINK-3352,1 51147U 22005AV  22230.72202536  .00000280  00000-0  35712-4 0  9995,2 51147  53.2183  20.4228 0001544  68.2722 291.8434 15.08843631 32499,6917.869000000002,95.437,540.802,538.6659999999998,0.0
51147.0,STARLINK-3352,PAYLOAD,2022-08-20 02:42:49,15.08832537,0.0001267,53.2179,14.1774,68.3246,291.7881,-0.00017067,-3.002e-05,0.0,0 STARLINK-3352,1 51147U 22005AV  22232.11307049 -.00003002  00000-0 -17067-3 0  9994,2 51147  53.2179  14.1774 0001267  68.3246 291.7881 15.08832537 33820,6917.903,95.438,540.645,538.8919999999998,0.0
51147.0,STARLINK-3352,PAYLOAD,2022-08-20 12:15:09,15.08806881,0.0001298,53.2187,12.3936,70.744,289.3693,0.00039708,6.032e-05,0.0,0 STARLINK-3352,1 51147U 22005AV  22232.51052519  .00006032  00000-0  39708-3 0  9997,2 51147  53.2187  12.3936 0001298  70.7440 289.3693 15.08806881 33889,6917.982,95.44,540.745,538.9490000000002,0.0
51147.0,STARLINK-3352,PAYLOAD,2022-08-20 18:36:41,15.08836065,0.0001621,53.2192,11.2049,66.479,293.6373,6.6739e-05,7.74e-06,0.0,0 STARLINK-3352,1 51147U 22005AV  22232.77547482  .00000774  00000-0  66739-4 0  9995,2 51147  53.2192  11.2049 0001621  66.4790 293.6373 15.08836065 32809,6917.892,95.438,540.879,538.636,0.0
51147.0,STARLINK-3352,PAYLOAD,2022-08-21 13:41:18,15.08837319,0.0001609,53.2191,7.6364,66.4603,293.6558,0.00022969,3.369e-05,0.0,0 STARLINK-3352,1 51147U 22005AV  22233.57035036  .00003369  00000-0  22969-3 0  9990,2 51147  53.2191   7.6364 0001609  66.4603 293.6558 15.08837319 32927,6917.889,95.438,540.867,538.64,0.0
51147.0,STARLINK-3352,PAYLOAD,2022-08-21 21:38:14,15.08830689,0.000162,53.2181,6.1494,65.4762,294.6399,0.00016089,2.273e-05,0.0,0 STARLINK-3352,1 51147U 22005AV  22233.90156007  .00002273  00000-0  16089-3 0  9998,2 51147  53.2181   6.1494 0001620  65.4762 294.6399 15.08830689 32974,6917.909000000002,95.438,540.895,538.653,0.0
51147.0,STARLINK-3352,PAYLOAD,2022-08-22 02:24:24,15.08830809,0.0001638,53.2181,5.2573,66.0197,294.0966,0.00012549,1.709e-05,0.0,0 STARLINK-3352,1 51147U 22005AV  22234.10028097  .00001709  00000-0  12549-3 0  9998,2 51147  53.2181   5.2573 0001638  66.0197 294.0966 15.08830809 34127,6917.908,95.438,540.9069999999998,538.64,0.0
51147.0,STARLINK-3352,PAYLOAD,2022-08-22 08:45:56,15.08830068,0.0001595,53.2189,4.0682,63.9342,296.1814,0.00012667,1.728e-05,0.0,0 STARLINK-3352,1 51147U 22005AV  22234.36524146  .00001728  00000-0  12667-3 0  9994,2 51147  53.2189   4.0682 0001595  63.9342 296.1814 15.08830068 33045,6917.911,95.438,540.879,538.672,0.0
51147.0,STARLINK-3352,PAYLOAD,2022-08-22 19:53:38,15.08836381,0.0001661,53.2192,1.9872,66.4434,293.6732,9.7752e-05,1.268e-05,0.0,0 STARLINK-3352,1 51147U 22005AV  22234.82891916  .00001268  00000-0  97752-4 0  9995,2 51147  53.2192   1.9872 0001661  66.4434 293.6732 15.08836381 33113,6917.891,95.438,540.906,538.607,0.0
51147.0,STARLINK-3352,PAYLOAD,2022-08-23 03:50:34,15.08841084,0.0001551,53.2191,0.5002,65.3989,294.7164,9.1271e-05,1.165e-05,0.0,0 STARLINK-3352,1 51147U 22005AV  22235.16011627  .00001165  00000-0  91271-4 0  9992,2 51147  53.2191   0.5002 0001551  65.3989 294.7164 15.08841084 34289,6917.877,95.437,540.815,538.669,0.0
51147.0,STARLINK-3352,PAYLOAD,2022-08-23 08:36:43,15.08842699,0.0001565999999999,53.2191,359.6082,65.4398,294.6757,9.3416e-05,1.199e-05,0.0,0 STARLINK-3352,1 51147U 22005AV  22235.35883539  .00001199  00000-0  93416-4 0  9992,2 51147  53.2191 359.6082 0001566  65.4398 294.6757 15.08842699 33195,6917.871999999999,95.437,540.82,538.654,0.0
51147.0,STARLINK-3352,PAYLOAD,2022-08-23 19:44:25,15.08839554,0.0001571999999999,53.2191,357.5269,64.7223,295.3932,1.5129e-05,-4.7e-07,0.0,0 STARLINK-3352,1 51147U 22005AV  22235.82251919 -.00000047  00000-0  15129-4 0  9992,2 51147  53.2191 357.5269 0001572  64.7223 295.3932 15.08839554 33262,6917.882,95.438,540.8340000000002,538.659,0.0
51147.0,STARLINK-3352,PAYLOAD,2022-08-24 03:41:21,15.08828825,0.0001521999999999,53.2191,356.0402,64.5037,295.6113,4.7399e-05,4.66e-06,0.0,0 STARLINK-3352,1 51147U 22005AV  22236.15372632  .00000466  00000-0  47399-4 0  9993,2 51147  53.2191 356.0402 0001522  64.5037 295.6113 15.08828825 34434,6917.915,95.438,540.832,538.727,0.0
51147.0,STARLINK-3352,PAYLOAD,2022-08-24 11:38:17,15.08832558,0.0001554,53.2192,354.5538,64.058,296.0572,5.2248e-05,5.43e-06,0.0,0 STARLINK-3352,1 51147U 22005AV  22236.48492540  .00000543  00000-0  52248-4 0  9995,2 51147  53.2192 354.5538 0001554  64.0580 296.0572 15.08832558 33364,6917.903,95.438,540.8430000000002,538.693,0.0
51147.0,STARLINK-3352,PAYLOAD,2022-08-25 08:18:18,15.08840929,0.0001584,53.2194,350.689,62.2968,297.8185,4.3954e-05,4.12e-06,0.0,0 STARLINK-3352,1 51147U 22005AV  22237.34604167  .00000412  00000-0  43954-4 0  9990,2 51147  53.2194 350.6890 0001584  62.2968 297.8185 15.08840929 33491,6917.878000000002,95.437,540.8380000000002,538.6469999999998,0.0
51147.0,STARLINK-3352,PAYLOAD,2022-08-25 19:25:59,15.08849917,0.0001606,53.2188,348.6056,74.0705,286.0464,-2.2416e-05,-6.45e-06,0.0,0 STARLINK-3352,1 51147U 22005AV  22237.80971596 -.00000645  00000-0 -22416-4 0  9994,2 51147  53.2188 348.6056 0001606  74.0705 286.0464 15.08849917 34688,6917.85,95.437,540.826,538.604,0.0
51147.0,STARLINK-3352,PAYLOAD,2022-08-26 09:44:28,15.08832667,0.0001651,53.2185,345.9295,73.2984,286.819,5.1644e-05,5.34e-06,0.0,0 STARLINK-3352,1 51147U 22005AV  22238.40588815  .00000534  00000-0  51644-4 0  9999,2 51147  53.2185 345.9295 0001651  73.2984 286.8190 15.08832667 33654,6917.903,95.438,540.91,538.626,0.0
51147.0,STARLINK-3352,PAYLOAD,2022-08-26 16:06:01,15.08829456,0.0001626999999999,53.2186,344.7403,71.9304,288.1866,-7.6411e-07,-3e-06,0.0,0 STARLINK-3352,1 51147U 22005AV  22238.67085292 -.00000300  00000-0 -76411-6 0  9993,2 51147  53.2186 344.7403 0001627  71.9304 288.1866 15.08829456 33698,6917.913000000001,95.438,540.903,538.6519999999998,0.0
51147.0,STARLINK-3352,PAYLOAD,2022-08-27 11:10:38,15.08841011,0.0001512,53.2193,341.1727,64.0161,296.0987,-1.7253999999999996e-06,-3.15e-06,0.0,0 STARLINK-3352,1 51147U 22005AV  22239.46572892 -.00000315  00000-0 -17254-5 0  9993,2 51147  53.2193 341.1727 0001512  64.0161 296.0987 15.08841011 33810,6917.877,95.437,540.788,538.696,0.0
51147.0,STARLINK-3352,PAYLOAD,2022-08-27 19:07:34,15.08843686,0.0001506999999999,53.219,339.6858,61.1653,298.949,1.8297e-05,3e-08,0.0,0 STARLINK-3352,1 51147U 22005AV  22239.79692661  .00000003  00000-0  18297-4 0  9995,2 51147  53.2190 339.6858 0001507  61.1653 298.9490 15.08843686 33867,6917.869000000002,95.437,540.7769999999998,538.692,0.0
